SPACEMOBILE-004         
1 61049U 24163E   26193.40140888  .00012717  00000+0  58302-3 0  9998
2 61049  52.9682 192.9673 0006853 216.7757 143.2768 15.20795560101607
CZ-8A R/B               
1 66004U 25231K   26196.56087172 -.00000043  00000+0  43431-4 0  9995
2 66004  50.0042 278.6032 0116565 323.8982  35.4104 14.30162280 39002
SZ-21 MODULE            
1 66515U 25246C   26196.00590484  .00035069  00000+0  19407-3 0  9992
2 66515  41.4717 133.7507 0008362 219.7242 140.2991 15.78799904 38131
SPACEMOBILE-006         
1 67232U 25309A   26196.34249029  .00000702  00000+0  48789-4 0  9994
2 67232  52.9937 202.6601 0010057 215.7672 144.2649 15.18653983 30874
SPACEMOBILE-008         
1 69589U 26139A   26196.21889988 -.00000005  00000+0  16690-4 0  9996
2 69589  52.9948 135.2997 0005068  56.5691 303.5784 15.12801985  4221
SPACEMOBILE-009         
1 69590U 26139B   26196.22086413  .00000043  00000+0  19439-4 0  9996
2 69590  52.9939 135.3065 0005310  52.3964 307.7508 15.12695316  4226
SPACEMOBILE-010         
1 69591U 26139C   26196.22397988  .00000210  00000+0  28987-4 0  9993
2 69591  52.9945 135.3285 0005239  44.4295 315.7116 15.12527718  4232
